ONEWEB-0201             
1 48241U 21031AH  21145.91668981 -.01072861  00000-0 -62572-1 0  9997
2 48241  87.4903 302.6140 0012633 136.2123 152.4386 15.15119512  1787
ONEWEB-0207             
1 48242U 21031AJ  21145.91668981 -.01092079  00000-0 -69792-1 0  9992
2 48242  87.4802 302.6287 0010289 153.1545 303.9229 15.11473533  1779
ONEWEB-0208             
1 48243U 21031AK  21145.91668981 -.01108948  00000-0 -70816-1 0  9995
2 48243  87.4598 302.6339 0008396 138.9916 145.5875 15.11568288  1813
ONEWEB-0200             
1 48244U 21031AL  21145.91668981 -.01137563  00000-0 -89876-1 0  9997
2 48244  87.4503 302.6765 0011781 146.0617 231.6556 15.03795549  1785
ONEWEB-0217             
1 48245U 21031AM  21145.91668981 -.01150881  00000-0 -10564+0 0  9992
2 48245  87.4358 302.7173 0008157 157.6530 244.8021 14.98191152  1790
